NORAD_CAT_ID,OBJECT_NAME,OBJECT_TYPE,EPOCH,MEAN_MOTION,ECCENTRICITY,INCLINATION,RA_OF_ASC_NODE,ARG_OF_PERICENTER,MEAN_ANOMALY,BSTAR,MEAN_MOTION_DOT,MEAN_MOTION_DDOT,TLE_LINE0,TLE_LINE1,TLE_LINE2,SEMIMAJOR_AXIS,PERIOD,APOGEE,PERIGEE,DECAYED
52551.0,STARLINK-3969,PAYLOAD,2024-03-01 02:18:56,15.08847066,0.0001266,53.2164,204.7925,76.1344,283.9789,0.00016739,2.378e-05,0.0,0 STARLINK-3969,1 52551U 22051U   24061.09648304  .00002378  00000-0  16739-3 0  9994,2 52551  53.2164 204.7925 0001266  76.1344 283.9789 15.08847066100013,6917.859,95.437,540.6,538.848,0.0
52551.0,STARLINK-3969,PAYLOAD,2024-03-01 13:26:37,15.08859657,7.51e-05,53.2147,202.7098,56.8758,303.2306,0.00058576,9.052e-05,0.0,0 STARLINK-3969,1 52551U 22051U   24061.56015392  .00009052  00000-0  58576-3 0  9992,2 52551  53.2147 202.7098 0000751  56.8758 303.2306 15.08859657100015,6917.82,95.436,540.205,539.166,0.0
52551.0,STARLINK-3969,PAYLOAD,2024-03-01 16:37:24,15.08830955,0.0001275,53.2144,202.1149,67.8167,292.2961,-2.5892e-05,-7e-06,0.0,0 STARLINK-3969,1 52551U 22051U   24061.69264460 -.00000700  00000-0 -25892-4 0  9997,2 52551  53.2144 202.1149 0001275  67.8167 292.2961 15.08830955100105,6917.908,95.438,540.655,538.891,0.0
52551.0,STARLINK-3969,PAYLOAD,2024-03-02 13:17:25,15.0882823,0.0001282,53.2136,198.2491,68.297,291.8158,-9.412e-05,-1.785e-05,0.0,0 STARLINK-3969,1 52551U 22051U   24062.55377084 -.00001785  00000-0 -94120-4 0  9994,2 52551  53.2136 198.2491 0001282  68.2970 291.8158 15.08828230100168,6917.916,95.438,540.668,538.894,0.0
52551.0,STARLINK-3969,PAYLOAD,2024-03-02 16:28:12,15.08833172,0.0001465,53.2154,197.6568,78.9206,281.1951,8.3705e-06,-1.55e-06,0.0,0 STARLINK-3969,1 52551U 22051U   24062.68625064 -.00000155  00000-0  83705-5 0  9999,2 52551  53.2154 197.6568 0001465  78.9206 281.1951 15.08833172100185,6917.901,95.438,540.78,538.753,0.0
52551.0,STARLINK-3969,PAYLOAD,2024-03-03 02:00:30,15.08843209,0.0001366,53.2146,195.8714,78.9693,281.1453,0.00019997,2.896e-05,0.0,0 STARLINK-3969,1 52551U 22051U   24063.08368746  .00002896  00000-0  19997-3 0  9998,2 52551  53.2146 195.8714 0001366  78.9693 281.1453 15.08843209100313,6917.871,95.437,540.681,538.791,0.0
52551.0,STARLINK-3969,PAYLOAD,2024-03-03 08:22:03,15.08810575,7.37e-05,53.2145,194.6791,111.0847,249.0224,-0.0004054,-6.728e-05,0.0,0 STARLINK-3969,1 52551U 22051U   24063.34865499 -.00006728  00000-0 -40540-3 0  9992,2 52551  53.2145 194.6791 0000737 111.0847 249.0224 15.08810575100358,6917.97,95.439,540.345,539.325,0.0
52551.0,STARLINK-3969,PAYLOAD,2024-03-03 14:43:36,15.08827017,0.0001804,53.2158,193.4961,84.531,275.5888,0.00021283,3.1e-05,0.0,0 STARLINK-3969,1 52551U 22051U   24063.61362007  .00003100  00000-0  21283-3 0  9991,2 52551  53.2158 193.4961 0001804  84.5310 275.5888 15.08827017100329,6917.92,95.438,541.033,538.537,0.0
52551.0,STARLINK-3969,PAYLOAD,2024-03-03 17:54:22,15.08840648,0.0001422,53.215,192.8994,89.6134,270.5021,0.00048385,7.421e-05,0.0,0 STARLINK-3969,1 52551U 22051U   24063.74609580  .00007421  00000-0  48385-3 0  9997,2 52551  53.2150 192.8994 0001422  89.6134 270.5021 15.08840648100347,6917.878,95.438,540.727,538.76,0.0
52551.0,STARLINK-3969,PAYLOAD,2024-03-04 14:34:22,15.08864936,0.0001592,53.2148,189.034,80.7745,279.3428,0.00079859,0.00012453,0.0,0 STARLINK-3969,1 52551U 22051U   24064.60720735  .00012453  00000-0  79859-3 0  9990,2 52551  53.2148 189.0340 0001592  80.7745 279.3428 15.08864936100473,6917.804,95.436,540.77,538.568,0.0
52551.0,STARLINK-3969,PAYLOAD,2024-03-05 14:25:09,15.0882044,0.0001409,53.2152,184.5729,101.1268,258.9883,-0.00064564,-0.00010543,0.0,0 STARLINK-3969,1 52551U 22051U   24065.60080745 -.00010543  00000-0 -64564-3 0  9998,2 52551  53.2152 184.5729 0001409 101.1268 258.9883 15.08820440100621,6917.94,95.439,540.78,538.83,0.0
52551.0,STARLINK-3969,PAYLOAD,2024-03-06 11:05:11,15.08838955,0.000147,53.2159,180.7071,102.5996,257.5161,0.0012502,0.00019664,0.0,0 STARLINK-3969,1 52551U 22051U   24066.46193974  .00019664  00000-0  12502-2 0  9997,2 52551  53.2159 180.7071 0001470 102.5996 257.5161 15.08838955100823,6917.884,95.438,540.766,538.732,0.0
52551.0,STARLINK-3969,PAYLOAD,2024-03-06 14:15:57,15.08850667,0.0001427,53.2163,180.1132,98.2004,261.915,0.001543,0.00024361,0.0,0 STARLINK-3969,1 52551U 22051U   24066.59441885  .00024361  00000-0  15430-2 0  9991,2 52551  53.2163 180.1132 0001427  98.2004 261.9150 15.08850667100778,6917.848,95.437,540.7,538.726,0.0
52551.0,STARLINK-3969,PAYLOAD,2024-03-07 14:06:45,15.08834953,0.0001498,53.2166,175.6542,84.1011,276.0152,2.1463e-05,5.4e-07,0.0,0 STARLINK-3969,1 52551U 22051U   24067.58802283  .00000054  00000-0  21463-4 0  9992,2 52551  53.2166 175.6542 0001498  84.1011 276.0152 15.08834953100921,6917.896,95.438,540.797,538.725,0.0
52551.0,STARLINK-3969,PAYLOAD,2024-03-08 13:57:31,15.08847719,0.0001404,53.2159,171.1916,81.8471,278.268,0.0002236,3.273e-05,0.0,0 STARLINK-3969,1 52551U 22051U   24068.58161906  .00003273  00000-0  22360-3 0  9995,2 52551  53.2159 171.1916 0001404  81.8471 278.2680 15.08847719101149,6917.857,95.437,540.693,538.751,0.0
52551.0,STARLINK-3969,PAYLOAD,2024-03-09 12:12:56,15.08834573,0.0001572,53.2159,167.0297,89.0644,271.0528,-3.1331e-05,-7.87e-06,0.0,0 STARLINK-3969,1 52551U 22051U   24069.50898403 -.00000787  00000-0 -31331-4 0  9995,2 52551  53.2159 167.0297 0001572  89.0644 271.0528 15.08834573101284,6917.897,95.438,540.849,538.674,0.0
52551.0,STARLINK-3969,PAYLOAD,2024-03-09 15:23:42,15.08839991,0.0001767,53.2173,166.4362,92.8317,267.2878,0.00010097,1.319e-05,0.0,0 STARLINK-3969,1 52551U 22051U   24069.64146330  .00001319  00000-0  10097-3 0  9990,2 52551  53.2173 166.4362 0001767  92.8317 267.2878 15.08839991101230,6917.88,95.438,540.968,538.523,0.0
52551.0,STARLINK-3969,PAYLOAD,2024-03-09 23:20:37,15.08849781,0.0001315,53.2154,164.9466,77.1921,282.9218,0.00036714,5.561e-05,0.0,0 STARLINK-3969,1 52551U 22051U   24069.97265959  .00005561  00000-0  36714-3 0  9992,2 52551  53.2154 164.9466 0001315  77.1921 282.9218 15.08849781101356,6917.85,95.437,540.625,538.806,0.0
52551.0,STARLINK-3969,PAYLOAD,2024-03-10 12:03:43,15.08833925,0.000146,53.2158,162.5688,83.3866,276.7292,0.00010001,1.304e-05,0.0,0 STARLINK-3969,1 52551U 22051U   24070.50258503  .00001304  00000-0  10001-3 0  9992,2 52551  53.2158 162.5688 0001460  83.3866 276.7292 15.08833925101433,6917.899,95.438,540.774,538.754,0.0
52551.0,STARLINK-3969,PAYLOAD,2024-03-10 15:14:29,15.08835888,0.0001445,53.2155,161.9736,85.5032,274.6125,0.0002302,3.377e-05,0.0,0 STARLINK-3969,1 52551U 22051U   24070.63506518  .00003377  00000-0  23020-3 0  9995,2 52551  53.2155 161.9736 0001445  85.5032 274.6125 15.08835888101385,6917.893,95.438,540.758,538.758,0.0
52551.0,STARLINK-3969,PAYLOAD,2024-03-10 23:11:25,15.08846269,0.0001463,53.2158,160.4877,89.0893,271.0267,0.0005749,8.875e-05,0.0,0 STARLINK-3969,1 52551U 22051U   24070.96626359  .00008875  00000-0  57490-3 0  9993,2 52551  53.2158 160.4877 0001463  89.0893 271.0267 15.08846269101509,6917.861,95.437,540.738,538.714,0.0
52551.0,STARLINK-3969,PAYLOAD,2024-03-11 11:54:30,15.08840825,0.0001282,53.2145,158.1069,89.1728,270.9411,0.00025488,3.771e-05,0.0,0 STARLINK-3969,1 52551U 22051U   24071.49618439  .00003771  00000-0  25488-3 0  9994,2 52551  53.2145 158.1069 0001282  89.1728 270.9411 15.08840825101588,6917.878,95.438,540.63,538.856,0.0
52551.0,STARLINK-3969,PAYLOAD,2024-03-12 14:56:03,15.08846632,0.0001307,53.2141,153.0523,88.2303,271.8839,0.00027525,4.096e-05,0.0,0 STARLINK-3969,1 52551U 22051U   24072.62226422  .00004096  00000-0  27525-3 0  9992,2 52551  53.2141 153.0523 0001307  88.2303 271.8839 15.08846632101755,6917.86,95.437,540.629,538.821,0.0
52551.0,STARLINK-3969,PAYLOAD,2024-03-13 11:36:04,15.08848192,0.0001365,53.2144,149.1863,87.5817,272.5332,0.00023612,3.473e-05,0.0,0 STARLINK-3969,1 52551U 22051U   24073.48338192  .00003473  00000-0  23612-3 0  9996,2 52551  53.2144 149.1863 0001365  87.5817 272.5332 15.08848192101813,6917.855,95.437,540.665,538.776,0.0
52551.0,STARLINK-3969,PAYLOAD,2024-03-13 14:46:50,15.08852694,0.0001362,53.2144,148.591,86.7386,273.3762,0.00029257,4.373e-05,0.0,0 STARLINK-3969,1 52551U 22051U   24073.61585975  .00004373  00000-0  29257-3 0  9995,2 52551  53.2144 148.5910 0001362  86.7386 273.3762 15.08852694101838,6917.842,95.437,540.649,538.764,0.0
52551.0,STARLINK-3969,PAYLOAD,2024-03-14 05:05:18,15.08846188,0.0001512,53.2158,145.9122,92.0109,268.1056,0.0001469,2.051e-05,0.0,0 STARLINK-3969,1 52551U 22051U   24074.21201999  .00002051  00000-0  14690-3 0  9999,2 52551  53.2158 145.9122 0001512  92.0109 268.1056 15.08846188101995,6917.861,95.437,540.772,538.68,0.0
52551.0,STARLINK-3969,PAYLOAD,2024-03-14 14:37:37,15.08840678,0.0001434,53.2159,144.1277,91.3578,268.7579,3.5579e-05,2.78e-06,0.0,0 STARLINK-3969,1 52551U 22051U   24074.60946160  .00000278  00000-0  35579-4 0  9997,2 52551  53.2159 144.1277 0001434  91.3578 268.7579 15.08840678102055,6917.878,95.438,540.735,538.751,0.0
52551.0,STARLINK-3969,PAYLOAD,2024-03-15 09:42:15,15.08838221,0.0001419,53.2166,140.5585,93.5796,266.5358,3.2147e-06,-2.37e-06,0.0,0 STARLINK-3969,1 52551U 22051U   24075.40434483 -.00000237  00000-0  32147-5 0  9991,2 52551  53.2166 140.5585 0001419  93.5796 266.5358 15.08838221102102,6917.886,95.438,540.732,538.769,0.0
52551.0,STARLINK-3969,PAYLOAD,2024-03-16 04:46:53,15.08832742,0.0001466,53.2161,136.9902,104.9951,255.1203,6.8598e-05,8.04e-06,0.0,0 STARLINK-3969,1 52551U 22051U   24076.19922725  .00000804  00000-0  68598-4 0  9996,2 52551  53.2161 136.9902 0001466 104.9951 255.1203 15.08832742102296,6917.903,95.438,540.782,538.753,0.0
52551.0,STARLINK-3969,PAYLOAD,2024-03-16 09:33:02,15.08830649,0.0001402,53.2161,136.0979,97.0881,263.0271,4.2748e-05,3.92e-06,0.0,0 STARLINK-3969,1 52551U 22051U   24076.39795074  .00000392  00000-0  42748-4 0  9994,2 52551  53.2161 136.0979 0001402  97.0881 263.0271 15.08830649102258,6917.909,95.438,540.744,538.804,0.0
